[{"OBJECT_NAME":"ASTROCAST-0403","OBJECT_ID":"2023-001DG","EPOCH":"2026-03-09T19:45:35.762976","MEAN_MOTION":15.28004949,"ECCENTRICITY":0.00047706,"INCLINATION":97.5604,"RA_OF_ASC_NODE":161.3228,"ARG_OF_PERICENTER":338.0704,"MEAN_ANOMALY":22.033,"EPHEMERIS_TYPE":0,"CLASSIFICATION_TYPE":"U","NORAD_CAT_ID":55111,"ELEMENT_SET_NO":999,"REV_AT_EPOCH":12937,"BSTAR":0.0005131719,"MEAN_MOTION_DOT":0.00013959,"MEAN_MOTION_DDOT":0},{"OBJECT_NAME":"STARLINK-32189","OBJECT_ID":"2024-133S","EPOCH":"2026-03-09T21:45:11.053152","MEAN_MOTION":15.30197277,"ECCENTRICITY":0.00011563,"INCLINATION":53.1591,"RA_OF_ASC_NODE":296.0444,"ARG_OF_PERICENTER":85.3535,"MEAN_ANOMALY":274.7597,"EPHEMERIS_TYPE":0,"CLASSIFICATION_TYPE":"U","NORAD_CAT_ID":60317,"ELEMENT_SET_NO":999,"REV_AT_EPOCH":9176,"BSTAR":-2.0333749e-5,"MEAN_MOTION_DOT":-9.61e-6,"MEAN_MOTION_DDOT":0}]
